[{"OBJECT_NAME":"O3B FM17","OBJECT_ID":"2019-020C","EPOCH":"2026-03-03T18:38:46.617216","MEAN_MOTION":5.00115414,"ECCENTRICITY":0.0002691,"INCLINATION":0.0395,"RA_OF_ASC_NODE":339.7989,"ARG_OF_PERICENTER":357.5009,"MEAN_ANOMALY":22.6814,"EPHEMERIS_TYPE":0,"CLASSIFICATION_TYPE":"U","NORAD_CAT_ID":44114,"ELEMENT_SET_NO":999,"REV_AT_EPOCH":12624,"BSTAR":0,"MEAN_MOTION_DOT":-2.8e-7,"MEAN_MOTION_DDOT":0},{"OBJECT_NAME":"O3B FM18","OBJECT_ID":"2019-020D","EPOCH":"2026-03-03T12:33:35.684352","MEAN_MOTION":5.00115242,"ECCENTRICITY":0.0002751,"INCLINATION":0.0519,"RA_OF_ASC_NODE":0.0145,"ARG_OF_PERICENTER":341.722,"MEAN_ANOMALY":18.2467,"EPHEMERIS_TYPE":0,"CLASSIFICATION_TYPE":"U","NORAD_CAT_ID":44115,"ELEMENT_SET_NO":999,"REV_AT_EPOCH":12636,"BSTAR":0,"MEAN_MOTION_DOT":-2.8e-7,"MEAN_MOTION_DDOT":0},{"OBJECT_NAME":"SES-17","OBJECT_ID":"2021-095A","EPOCH":"2026-03-03T13:45:25.111584","MEAN_MOTION":1.00281372,"ECCENTRICITY":7.26e-5,"INCLINATION":0.0228,"RA_OF_ASC_NODE":65.8789,"ARG_OF_PERICENTER":300.0742,"MEAN_ANOMALY":294.6288,"EPHEMERIS_TYPE":0,"CLASSIFICATION_TYPE":"U","NORAD_CAT_ID":49332,"ELEMENT_SET_NO":999,"REV_AT_EPOCH":1679,"BSTAR":0,"MEAN_MOTION_DOT":-2.87e-6,"MEAN_MOTION_DDOT":0},{"OBJECT_NAME":"SES-22","OBJECT_ID":"2022-071A","EPOCH":"2026-03-03T16:50:14.899776","MEAN_MOTION":1.0027358,"ECCENTRICITY":0.0001019,"INCLINATION":0.0191,"RA_OF_ASC_NODE":170.6204,"ARG_OF_PERICENTER":179.6381,"MEAN_ANOMALY":284.801,"EPHEMERIS_TYPE":0,"CLASSIFICATION_TYPE":"U","NORAD_CAT_ID":52933,"ELEMENT_SET_NO":999,"REV_AT_EPOCH":646,"BSTAR":0,"MEAN_MOTION_DOT":0,"MEAN_MOTION_DDOT":0},{"OBJECT_NAME":"SES-20","OBJECT_ID":"2022-123A","EPOCH":"2026-03-03T15:17:46.263264","MEAN_MOTION":1.00270643,"ECCENTRICITY":0.0001397,"INCLINATION":0.0155,"RA_OF_ASC_NODE":106.5897,"ARG_OF_PERICENTER":318.5401,"MEAN_ANOMALY":222.582,"EPHEMERIS_TYPE":0,"CLASSIFICATION_TYPE":"U","NORAD_CAT_ID":53960,"ELEMENT_SET_NO":999,"REV_AT_EPOCH":1247,"BSTAR":0,"MEAN_MOTION_DOT":-1.15e-6,"MEAN_MOTION_DDOT":0},{"OBJECT_NAME":"SES-21","OBJECT_ID":"2022-123B","EPOCH":"2026-03-03T15:09:54.514944","MEAN_MOTION":1.00266032,"ECCENTRICITY":7.38e-5,"INCLINATION":0.0278,"RA_OF_ASC_NODE":63.7289,"ARG_OF_PERICENTER":274.6523,"MEAN_ANOMALY":279.4804,"EPHEMERIS_TYPE":0,"CLASSIFICATION_TYPE":"U","NORAD_CAT_ID":53961,"ELEMENT_SET_NO":999,"REV_AT_EPOCH":615,"BSTAR":0,"MEAN_MOTION_DOT":5.6e-7,"MEAN_MOTION_DDOT":0},{"OBJECT_NAME":"O3B MPOWER F1","OBJECT_ID":"2022-174A","EPOCH":"2026-02-27T12:47:31.480800","MEAN_MOTION":5.00103025,"ECCENTRICITY":0.00051583,"INCLINATION":0.0641,"RA_OF_ASC_NODE":351.4493,"ARG_OF_PERICENTER":3.4086,"MEAN_ANOMALY":238.9684,"EPHEMERIS_TYPE":0,"CLASSIFICATION_TYPE":"U","NORAD_CAT_ID":54755,"ELEMENT_SET_NO":999,"REV_AT_EPOCH":5987,"BSTAR":0,"MEAN_MOTION_DOT":-2.6e-7,"MEAN_MOTION_DDOT":0},{"OBJECT_NAME":"O3B MPOWER F2","OBJECT_ID":"2022-174B","EPOCH":"2026-02-17T08:36:28.391616","MEAN_MOTION":5.00731386,"ECCENTRICITY":0.000156,"INCLINATION":0.0642,"RA_OF_ASC_NODE":348.2682,"ARG_OF_PERICENTER":220.555,"MEAN_ANOMALY":151.1634,"EPHEMERIS_TYPE":0,"CLASSIFICATION_TYPE":"U","NORAD_CAT_ID":54756,"ELEMENT_SET_NO":999,"REV_AT_EPOCH":5944,"BSTAR":0,"MEAN_MOTION_DOT":-1.5e-7,"MEAN_MOTION_DDOT":0},{"OBJECT_NAME":"SES-18","OBJECT_ID":"2023-038A","EPOCH":"2026-03-03T13:35:11.091840","MEAN_MOTION":1.00272207,"ECCENTRICITY":0.0002492,"INCLINATION":0.0619,"RA_OF_ASC_NODE":273.2992,"ARG_OF_PERICENTER":33.4174,"MEAN_ANOMALY":315.2907,"EPHEMERIS_TYPE":0,"CLASSIFICATION_TYPE":"U","NORAD_CAT_ID":55970,"ELEMENT_SET_NO":999,"REV_AT_EPOCH":1104,"BSTAR":0,"MEAN_MOTION_DOT":-1.15e-6,"MEAN_MOTION_DDOT":0},{"OBJECT_NAME":"SES-19","OBJECT_ID":"2023-038B","EPOCH":"2026-03-03T16:51:29.780928","MEAN_MOTION":1.00272119,"ECCENTRICITY":0.0001741,"INCLINATION":0.0549,"RA_OF_ASC_NODE":286.7591,"ARG_OF_PERICENTER":50.2099,"MEAN_ANOMALY":302.4492,"EPHEMERIS_TYPE":0,"CLASSIFICATION_TYPE":"U","NORAD_CAT_ID":55971,"ELEMENT_SET_NO":999,"REV_AT_EPOCH":1102,"BSTAR":0,"MEAN_MOTION_DOT":7.4e-7,"MEAN_MOTION_DDOT":0},{"OBJECT_NAME":"O3B MPOWER F4","OBJECT_ID":"2023-059A","EPOCH":"2026-02-17T05:46:40.580544","MEAN_MOTION":5.00119607,"ECCENTRICITY":0.00064606,"INCLINATION":0.0593,"RA_OF_ASC_NODE":7.9241,"ARG_OF_PERICENTER":334.3658,"MEAN_ANOMALY":17.6828,"EPHEMERIS_TYPE":0,"CLASSIFICATION_TYPE":"U","NORAD_CAT_ID":56367,"ELEMENT_SET_NO":999,"REV_AT_EPOCH":5260,"BSTAR":0,"MEAN_MOTION_DOT":-1.5e-7,"MEAN_MOTION_DDOT":0},{"OBJECT_NAME":"O3B MPOWER F5","OBJECT_ID":"2023-175A","EPOCH":"2026-03-03T13:35:26.566944","MEAN_MOTION":5.00115723,"ECCENTRICITY":0.0004138,"INCLINATION":0.0397,"RA_OF_ASC_NODE":2.4718,"ARG_OF_PERICENTER":344.6428,"MEAN_ANOMALY":12.8678,"EPHEMERIS_TYPE":0,"CLASSIFICATION_TYPE":"U","NORAD_CAT_ID":58346,"ELEMENT_SET_NO":999,"REV_AT_EPOCH":4414,"BSTAR":0,"MEAN_MOTION_DOT":-2.8e-7,"MEAN_MOTION_DDOT":0},{"OBJECT_NAME":"ASTRA 1P (SES-24)","OBJECT_ID":"2024-115A","EPOCH":"2026-03-03T08:46:38.616672","MEAN_MOTION":1.00272526,"ECCENTRICITY":0.00052834,"INCLINATION":0.0596,"RA_OF_ASC_NODE":334.2929,"ARG_OF_PERICENTER":348.1737,"MEAN_ANOMALY":349.5092,"EPHEMERIS_TYPE":0,"CLASSIFICATION_TYPE":"U","NORAD_CAT_ID":60086,"ELEMENT_SET_NO":999,"REV_AT_EPOCH":613,"BSTAR":0,"MEAN_MOTION_DOT":1.05e-6,"MEAN_MOTION_DDOT":0},{"OBJECT_NAME":"O3B MPOWER F7","OBJECT_ID":"2024-244A","EPOCH":"2026-02-28T12:50:16.247328","MEAN_MOTION":5.00115153,"ECCENTRICITY":0.00061429,"INCLINATION":0.0693,"RA_OF_ASC_NODE":5.4961,"ARG_OF_PERICENTER":333.0934,"MEAN_ANOMALY":21.3774,"EPHEMERIS_TYPE":0,"CLASSIFICATION_TYPE":"U","NORAD_CAT_ID":62362,"ELEMENT_SET_NO":999,"REV_AT_EPOCH":2109,"BSTAR":0,"MEAN_MOTION_DOT":-2.8e-7,"MEAN_MOTION_DDOT":0},{"OBJECT_NAME":"O3B MPOWER F8","OBJECT_ID":"2024-244B","EPOCH":"2026-03-03T12:00:22.267008","MEAN_MOTION":5.00115755,"ECCENTRICITY":0.0006648,"INCLINATION":0.0525,"RA_OF_ASC_NODE":316.7584,"ARG_OF_PERICENTER":17.7734,"MEAN_ANOMALY":25.4284,"EPHEMERIS_TYPE":0,"CLASSIFICATION_TYPE":"U","NORAD_CAT_ID":62363,"ELEMENT_SET_NO":999,"REV_AT_EPOCH":1558,"BSTAR":0,"MEAN_MOTION_DOT":-2.8e-7,"MEAN_MOTION_DDOT":0}]
